NORAD_CAT_ID,OBJECT_NAME,OBJECT_TYPE,EPOCH,MEAN_MOTION,ECCENTRICITY,INCLINATION,RA_OF_ASC_NODE,ARG_OF_PERICENTER,MEAN_ANOMALY,BSTAR,MEAN_MOTION_DOT,MEAN_MOTION_DDOT,TLE_LINE0,TLE_LINE1,TLE_LINE2,SEMIMAJOR_AXIS,PERIOD,APOGEE,PERIGEE,DECAYED
51135.0,STARLINK-3363,PAYLOAD,2023-01-02 06:43:57,15.08840132,0.0003271,53.2143,117.3827,40.0777,320.0456,0.00012033,1.627e-05,0.0,0 STARLINK-3363,1 51135U 22005AH  23002.28052924  .00001627  00000-0  12033-3 0  9991,2 51135  53.2143 117.3827 0003271  40.0777 320.0456 15.08840132 54362,6917.88,95.438,542.008,537.482,0.0
51135.0,STARLINK-3363,PAYLOAD,2023-01-02 14:40:53,15.08834286,0.0003396999999999,53.2133,115.895,39.9998,320.1244,0.00014537,2.025e-05,0.0,0 STARLINK-3363,1 51135U 22005AH  23002.61173392  .00002025  00000-0  14537-3 0  9995,2 51135  53.2133 115.8950 0003397  39.9998 320.1244 15.08834286 53292,6917.898,95.438,542.113,537.413,0.0
51135.0,STARLINK-3363,PAYLOAD,2023-01-03 09:45:31,15.08836331,0.0003197,53.2138,112.3275,40.3124,319.8105,0.00020234,2.933e-05,0.0,0 STARLINK-3363,1 51135U 22005AH  23003.40661724  .00002933  00000-0  20234-3 0  9993,2 51135  53.2138 112.3275 0003197  40.3124 319.8105 15.08836331 53412,6917.892,95.438,541.9680000000002,537.545,0.0
51135.0,STARLINK-3363,PAYLOAD,2023-01-03 16:07:04,15.0883435,0.0003316,53.2137,111.1384,40.5252,319.5986,9.8848e-05,1.285e-05,0.0,0 STARLINK-3363,1 51135U 22005AH  23003.67157938  .00001285  00000-0  98848-4 0  9995,2 51135  53.2137 111.1384 0003316  40.5252 319.5986 15.08834350 54577,6917.898,95.438,542.057,537.469,0.0
51135.0,STARLINK-3363,PAYLOAD,2023-01-04 12:47:05,15.08841333,0.0003213,53.2142,107.2729,41.2273,318.8961,0.00027063,4.021e-05,0.0,0 STARLINK-3363,1 51135U 22005AH  23004.53270014  .00004021  00000-0  27063-3 0  9993,2 51135  53.2142 107.2729 0003213  41.2273 318.8961 15.08841333 53583,6917.876,95.437,541.964,537.519,0.0
51135.0,STARLINK-3363,PAYLOAD,2023-01-04 14:22:28,15.08841569,0.0003083,53.2149,106.9757,40.0017,320.1202,0.00029274,4.374e-05,0.0,0 STARLINK-3363,1 51135U 22005AH  23004.59894011  .00004374  00000-0  29274-3 0  9995,2 51135  53.2149 106.9757 0003083  40.0017 320.1202 15.08841569 53591,6917.876,95.437,541.873,537.6080000000002,0.0
51135.0,STARLINK-3363,PAYLOAD,2023-01-05 06:16:18,15.088692800000002,0.000354,53.2147,104.0038,31.8833,328.2373,0.00097378,0.00015257,0.0,0 STARLINK-3363,1 51135U 22005AH  23005.26133056  .00015257  00000-0  97378-3 0  9997,2 51135  53.2147 104.0038 0003540  31.8833 328.2373 15.08869280 54816,6917.791,95.436,542.105,537.207,0.0
51135.0,STARLINK-3363,PAYLOAD,2023-01-05 12:37:51,15.08871748,0.0003093,53.2141,102.8123,37.9147,322.2062,0.00074325,0.00011571,0.0,0 STARLINK-3363,1 51135U 22005AH  23005.52628481  .00011571  00000-0  74325-3 0  9999,2 51135  53.2141 102.8123 0003093  37.9147 322.2062 15.08871748 53730,6917.783,95.436,541.788,537.509,0.0
51135.0,STARLINK-3363,PAYLOAD,2023-01-06 09:17:51,15.08828882,0.0003015,53.2149,98.9483,26.401,333.7136,-0.00041566,-6.896e-05,0.0,0 STARLINK-3363,1 51135U 22005AH  23006.38740609 -.00006896  00000-0 -41566-3 0  9998,2 51135  53.2149  98.9483 0003015  26.4010 333.7136 15.08828882 54986,6917.914000000002,95.438,541.865,537.694,0.0
51135.0,STARLINK-3363,PAYLOAD,2023-01-06 15:39:25,15.08811131,0.0002904,53.2148,97.7575,28.3205,331.7945,-0.00030518,-5.139e-05,0.0,0 STARLINK-3363,1 51135U 22005AH  23006.65237488 -.00005139  00000-0 -30518-3 0  9998,2 51135  53.2148  97.7575 0002904  28.3205 331.7945 15.08811131 55028,6917.969,95.439,541.8430000000002,537.825,0.0
51135.0,STARLINK-3363,PAYLOAD,2023-01-07 15:30:13,15.08837137,0.0003075,53.215,93.2973,26.483,333.6319,0.00093911,0.00014689,0.0,0 STARLINK-3363,1 51135U 22005AH  23007.64598743  .00014689  00000-0  93911-3 0  9996,2 51135  53.2150  93.2973 0003075  26.4830 333.6319 15.08837137 55173,6917.889,95.438,541.881,537.627,0.0
51135.0,STARLINK-3363,PAYLOAD,2023-01-08 12:10:14,15.08847026,0.0003116,53.2147,89.4309,29.3094,330.8072,0.00068951,0.00010705,0.0,0 STARLINK-3363,1 51135U 22005AH  23008.50711269  .00010705  00000-0  68951-3 0  9993,2 51135  53.2147  89.4309 0003116  29.3094 330.8072 15.08847026 55307,6917.859,95.437,541.88,537.568,0.0
51135.0,STARLINK-3363,PAYLOAD,2023-01-08 21:42:33,15.08849013,0.0003133,53.2148,87.6464,20.8882,339.2238,0.00081542,0.00012717,0.0,0 STARLINK-3363,1 51135U 22005AH  23008.90455166  .00012717  00000-0  81542-3 0  9994,2 51135  53.2148  87.6464 0003133  20.8882 339.2238 15.08849013 54247,6917.853,95.437,541.885,537.55,0.0
51135.0,STARLINK-3363,PAYLOAD,2023-01-09 12:01:01,15.08853901,0.000307,53.2161,84.9715,19.7368,340.3743,0.00033279,5.014e-05,0.0,0 STARLINK-3363,1 51135U 22005AH  23009.50070641  .00005014  00000-0  33279-3 0  9998,2 51135  53.2161  84.9715 0003070  19.7368 340.3743 15.08853901 55456,6917.838000000002,95.437,541.827,537.5790000000002,0.0
51135.0,STARLINK-3363,PAYLOAD,2023-01-09 21:33:19,15.08860869,0.0003123,53.2148,83.1864,22.0756,338.037,0.00040172,6.115e-05,0.0,0 STARLINK-3363,1 51135U 22005AH  23009.89814088  .00006115  00000-0  40172-3 0  9994,2 51135  53.2148  83.1864 0003123  22.0756 338.0370 15.08860869 54397,6917.816999999999,95.436,541.842,537.521,0.0
51135.0,STARLINK-3363,PAYLOAD,2023-01-10 11:51:47,15.0884125,0.0002985,53.2134,80.5094,21.3898,338.7218,-8.1494e-05,-1.586e-05,0.0,0 STARLINK-3363,1 51135U 22005AH  23010.49430311 -.00001586  00000-0 -81494-4 0  9997,2 51135  53.2134  80.5094 0002985  21.3898 338.7218 15.08841250 55608,6917.877,95.437,541.807,537.677,0.0
51135.0,STARLINK-3363,PAYLOAD,2023-01-11 11:42:34,15.08850022,0.000299,53.2134,76.0484,23.8329,336.2801,0.00013444,1.852e-05,0.0,0 STARLINK-3363,1 51135U 22005AH  23011.48789862  .00001852  00000-0  13444-3 0  9998,2 51135  53.2134  76.0484 0002990  23.8329 336.2801 15.08850022 54633,6917.85,95.437,541.783,537.646,0.0
51135.0,STARLINK-3363,PAYLOAD,2023-01-11 21:14:53,15.08836134,0.0002878,53.2143,74.2645,23.0621,337.0499,-6.6178e-05,-1.342e-05,0.0,0 STARLINK-3363,1 51135U 22005AH  23011.88534420 -.00001342  00000-0 -66178-4 0  9999,2 51135  53.2143  74.2645 0002878  23.0621 337.0499 15.08836134 54690,6917.892,95.438,541.748,537.766,0.0
51135.0,STARLINK-3363,PAYLOAD,2023-01-12 09:57:59,15.08830607,0.0003362,53.2133,71.8855,35.9097,324.212,4.0977e-05,3.63e-06,0.0,0 STARLINK-3363,1 51135U 22005AH  23012.41527454  .00000363  00000-0  40977-4 0  9997,2 51135  53.2133  71.8855 0003362  35.9097 324.2120 15.08830607 55894,6917.9090000000015,95.438,542.1,537.448,0.0
51135.0,STARLINK-3363,PAYLOAD,2023-01-12 21:05:42,15.08833975,0.0002953,53.2137,69.8046,28.9231,331.1924,0.00021156,3.08e-05,0.0,0 STARLINK-3363,1 51135U 22005AH  23012.87895854  .00003080  00000-0  21156-3 0  9995,2 51135  53.2137  69.8046 0002953  28.9231 331.1924 15.08833975 54848,6917.899,95.438,541.807,537.721,0.0
51135.0,STARLINK-3363,PAYLOAD,2023-01-13 12:59:33,15.08851514,0.0002601,53.2142,66.8273,38.4225,321.6952,0.0010745999999999,0.00016861,0.0,0 STARLINK-3363,1 51135U 22005AH  23013.54136081  .00016861  00000-0  10746-2 0  9993,2 51135  53.2142  66.8273 0002601  38.4225 321.6952 15.08851514 56062,6917.845,95.437,541.51,537.911,0.0
51135.0,STARLINK-3363,PAYLOAD,2023-01-13 20:56:29,15.0884467,0.0002671,53.2131,65.343,36.6042,323.5132,0.00059342,9.17e-05,0.0,0 STARLINK-3363,1 51135U 22005AH  23013.87256265  .00009170  00000-0  59342-3 0  9997,2 51135  53.2131  65.3430 0002671  36.6042 323.5132 15.08844670 54999,6917.866,95.437,541.5790000000001,537.883,0.0
51135.0,STARLINK-3363,PAYLOAD,2023-01-14 01:42:38,15.08848971,0.0003148,53.2122,64.4525,40.9905,319.1323,0.00071565,0.00011123,0.0,0 STARLINK-3363,1 51135U 22005AH  23014.07128427  .00011123  00000-0  71565-3 0  9990,2 51135  53.2122  64.4525 0003148  40.9905 319.1323 15.08848971 56140,6917.853,95.437,541.896,537.54,0.0
51135.0,STARLINK-3363,PAYLOAD,2023-01-15 03:08:49,15.0884613,0.0002222,53.2151,59.6916,38.6424,321.4727,0.00087687,0.00013697,0.0,0 STARLINK-3363,1 51135U 22005AH  23015.13112648  .00013697  00000-0  87687-3 0  9996,2 51135  53.2151  59.6916 0002222  38.6424 321.4727 15.08846130 56301,6917.861999999999,95.437,541.264,538.19,0.0
51135.0,STARLINK-3363,PAYLOAD,2023-01-15 09:30:21,15.08850174,0.000227,53.2153,58.503,38.8289,321.2866,0.0018137999999999,0.00028705,0.0,0 STARLINK-3363,1 51135U 22005AH  23015.39608743  .00028705  00000-0  18138-2 0  9990,2 51135  53.2153  58.5030 0002270  38.8289 321.2866 15.08850174 55227,6917.849,95.437,541.285,538.144,0.0
51135.0,STARLINK-3363,PAYLOAD,2023-01-16 10:56:31,15.08889763,0.0002515,53.2155,53.7432,43.7614,316.3577,0.0020064,0.00031833,0.0,0 STARLINK-3363,1 51135U 22005AH  23016.45591597  .00031833  00000-0  20064-2 0  9993,2 51135  53.2155  53.7432 0002515  43.7614 316.3577 15.08889763 56503,6917.728,95.434,541.3330000000001,537.8530000000001,0.0
51135.0,STARLINK-3363,PAYLOAD,2023-01-16 12:31:54,15.08893465,0.000229,53.2152,53.4488,51.3304,308.7893,0.0020475,0.00032497,0.0,0 STARLINK-3363,1 51135U 22005AH  23016.52215353  .00032497  00000-0  20475-2 0  9997,2 51135  53.2152  53.4488 0002290  51.3304 308.7893 15.08893465 55395,6917.717,95.434,541.1659999999999,537.998,0.0
51135.0,STARLINK-3363,PAYLOAD,2023-01-16 18:53:27,15.08835282,0.0002035,53.2158,52.2582,61.856,298.2638,-0.00018822,-3.282e-05,0.0,0 STARLINK-3363,1 51135U 22005AH  23016.78711868 -.00003282  00000-0 -18822-3 0  9993,2 51135  53.2158  52.2582 0002035  61.8560 298.2638 15.08835282 56552,6917.895,95.438,541.168,538.352,0.0
51135.0,STARLINK-3363,PAYLOAD,2023-01-17 02:50:23,15.08812694,0.0002228,53.2177,50.7731,76.093,284.0309,-8.5962e-06,-4.25e-06,0.0,0 STARLINK-3363,1 51135U 22005AH  23017.11832950 -.00000425  00000-0 -85962-5 0  9994,2 51135  53.2177  50.7731 0002228  76.0930 284.0309 15.08812694 56601,6917.964,95.439,541.37,538.288,0.0
